GSAT0101 (PRN E11)      
1 37846U 11060A   21173.67411137 -.00000076  00000-0  00000-0 0  9994
2 37846  56.8406  31.1378 0003530  32.6469 327.4374  1.70475129 60083
GSAT0102 (PRN E12)      
1 37847U 11060B   21169.18609356 -.00000068  00000-0  00000-0 0  9999
2 37847  56.8390  31.2600 0003556 354.9463 177.0344  1.70475408 60016
GSAT0103 (PRN E19)      
1 38857U 12055A   21171.36880200  .00000078  00000-0  00000-0 0  9998
2 38857  55.0484 151.6573 0005079 271.8715  88.0543  1.70473661 53932
GSAT0104 (PRN E20)      
1 38858U 12055B   21174.85899982  .00000044  00000-0  00000-0 0  9996
2 38858  55.0491 151.5629 0002693 277.2925  82.6350  1.70473986 53996
GSAT0201 (PRN E18)      
1 40128U 14050A   21173.15712448 -.00000101  00000-0  00000-0 0  9994
2 40128  50.4739 346.6350 1648827 111.5650 266.8218  1.85518593 44531
GSAT0202 (PRN E14)      
1 40129U 14050B   21174.49745159 -.00000108  00000-0  00000-0 0  9995
2 40129  50.5042 345.6311 1645962 112.4180 265.8579  1.85519303 46723
GSAT0203 (PRN E26)      
1 40544U 15017A   21174.04236388 -.00000078  00000-0  00000+0 0  9995
2 40544  56.6348  31.2103 0001221 254.4187 105.6299  1.70474478 38834
GSAT0204 (PRN E22)      
1 40545U 15017B   21173.70885495 -.00000077  00000-0  00000-0 0  9997
2 40545  56.6403  31.2304 0001166 201.0164 159.0409  1.70475523 38828
GSAT0205 (PRN E24)      
1 40889U 15045A   21174.06346860 -.00000020  00000-0  00000+0 0  9994
2 40889  55.8700 271.8871 0003234   9.4854 350.5560  1.70475585 35983
GSAT0206 (PRN E30)      
1 40890U 15045B   21174.86953962 -.00000018  00000-0  00000+0 0  9998
2 40890  55.8689 271.8611 0001637 344.9659  15.0694  1.70475626 36021
GSAT0209 (PRN E09)      
1 41174U 15079A   21173.87084076  .00000054  00000-0  00000-0 0  9992
2 41174  55.0644 151.2893 0005670 306.6259  53.2874  1.70473032 33744
GSAT0208 (PRN E08)      
1 41175U 15079B   21172.33077075  .00000070  00000-0  00000-0 0  9992
2 41175  55.0619 151.3306 0004972 305.1394  54.7917  1.70473153 34137
GSAT0211 (PRN E02)      
1 41549U 16030A   21174.21140647 -.00000019  00000-0  00000-0 0  9994
2 41549  56.0140 271.7746 0003057 307.9343  52.0744  1.70475295 31645
GSAT0210 (PRN E01)      
1 41550U 16030B   21174.50419802 -.00000019  00000-0  00000+0 0  9999
2 41550  56.0127 271.7678 0002989 268.6457  91.3582  1.70475412 31623
GSAT0207 (PRN E07)      
1 41859U 16069A   21174.16345692  .00000050  00000-0  00000-0 0  9995
2 41859  54.7232 151.5516 0005712 295.5338  64.3706  1.70472972 28371
GSAT0212 (PRN E03)      
1 41860U 16069B   21174.60345852  .00000046  00000-0  00000+0 0  9998
2 41860  54.7211 151.5375 0004460 312.6637  47.2586  1.70472961 28638
GSAT0213 (PRN E04)      
1 41861U 16069C   21172.62279256  .00000067  00000-0  00000-0 0  9997
2 41861  54.7232 151.5970 0005221 278.2095  81.7074  1.70473153 28464
GSAT0214 (PRN E05)      
1 41862U 16069D   21174.52955957  .00000046  00000-0  00000+0 0  9994
2 41862  54.7217 151.5392 0004321 282.9420  76.9703  1.70473053 28622
GSAT0215 (PRN E21)      
1 43055U 17079A   21173.84726605 -.00000020  00000-0  00000-0 0  9996
2 43055  55.9883 271.6222 0002415 259.5362 100.4712  1.70474364 21951
GSAT0216 (PRN E25)      
1 43056U 17079B   21172.37999417 -.00000022  00000-0  00000-0 0  9999
2 43056  55.9902 271.6623 0004152 267.8311  92.1498  1.70474610 21946
GSAT0217 (PRN E27)      
1 43057U 17079C   21174.35989232 -.00000019  00000-0  00000-0 0  9990
2 43057  55.9863 271.6080 0003639 280.2298  79.7668  1.70474584 21964
GSAT0218 (PRN E31)      
1 43058U 17079D   21172.23355834 -.00000022  00000-0  00000-0 0  9995
2 43058  55.9885 271.6639 0004620 264.4453  95.5301  1.70474525 21951
GSAT0221 (PRN E15)      
1 43564U 18060A   21175.06520346 -.00000080  00000-0  00000+0 0  9997
2 43564  57.0204  30.9059 0002117 294.3781  65.6616  1.70475489 18164
GSAT0222 (PRN E33)      
1 43565U 18060B   21174.11187787 -.00000077  00000-0  00000-0 0  9998
2 43565  57.0220  30.9318 0002142 313.6962  46.3485  1.70475485 18183
GSAT0219 (PRN E36)      
1 43566U 18060C   21172.57269837 -.00000073  00000-0  00000+0 0  9999
2 43566  57.0221  30.9756 0001931 320.8646  39.1830  1.70475482 18131
GSAT0220 (PRN E13)      
1 43567U 18060D   21173.96571063 -.00000077  00000-0  00000-0 0  9996
2 43567  57.0222  30.9380 0001776 309.8723  50.1745  1.70475122 18146
